ONEWEB-0428             
1 51629U 22012H   26161.36822198 -.00000552  00000+0 -16171-2 0  9996
2 51629  87.8836  37.6325 0001780  80.3582 279.7746 13.10370805208395
ONEWEB-0431             
1 51630U 22012J   26161.41458560  .00000656  00000+0  18443-2 0  9999
2 51630  87.8840  37.6156 0001431  98.7589 261.3701 13.10373157208455
ONEWEB-0434             
1 51631U 22012K   26161.39161153 -.00000196  00000+0 -59812-3 0  9993
2 51631  87.8846  37.6451 0002396  74.4070 285.7321 13.10375409208435
ONEWEB-0435             
1 51632U 22012L   26161.39976238  .00000257  00000+0  70006-3 0  9996
2 51632  87.8841  37.6302 0001471  79.0608 281.0685 13.10373833208427
ONEWEB-0436             
1 51633U 22012M   26161.52983020  .00000015  00000+0  55828-5 0  9998
2 51633  87.9144   7.1697 0001639  86.6464 273.4855 13.17648313212800
ONEWEB-0438             
1 51634U 22012N   26161.15409420 -.00000507  00000+0 -14874-2 0  9996
2 51634  87.8841  37.6820 0002000  80.2920 279.8433 13.10374612208426
ONEWEB-0439             
1 51635U 22012P   26161.38650723 -.00000841  00000+0 -24472-2 0  9992
2 51635  87.8828  37.6231 0002667  79.5199 280.6229 13.10367837208431
ONEWEB-0442             
1 51636U 22012Q   26161.52224324  .00000013  00000+0  79591-6 0  9998
2 51636  87.9138   7.2045 0002428  85.2023 274.9385 13.17648811212792
ONEWEB-0443             
1 51637U 22012R   26161.01008890  .00000107  00000+0  24317-3 0  9998
2 51637  87.9135   7.3074 0001888  76.5534 283.5808 13.17648806212770
ONEWEB-0444             
1 51638U 22012S   26161.37652438 -.00000668  00000+0 -19492-2 0  9992
2 51638  87.8834  37.6236 0001880  76.3866 283.7471 13.10372701208448
ONEWEB-0445             
1 51639U 22012T   26161.39812113  .00000163  00000+0  43207-3 0  9993
2 51639  87.8850  37.6071 0001816  88.5870 271.5465 13.10375391208450
ONEWEB-0446             
1 51640U 22012U   26161.37485968 -.00000656  00000+0 -19147-2 0  9991
2 51640  87.8839  37.6410 0001839  86.2347 273.8991 13.10372240208432
ONEWEB-0448             
1 51641U 22012V   26161.37984889 -.00000615  00000+0 -17987-2 0  9993
2 51641  87.8841  37.6369 0001788  79.1089 281.0239 13.10374115208402
ONEWEB-0449             
1 51642U 22012W   26161.38482822 -.00000457  00000+0 -13450-2 0  9990
2 51642  87.8842  37.6210 0002215  76.3940 283.7434 13.10374418208413
ONEWEB-0451             
1 51643U 22012X   26161.52646801  .00000000  00000+0 -32828-4 0  9991
2 51643  87.9147   7.1678 0002058  83.1803 276.9563 13.17648585212780
ONEWEB-0452             
1 51644U 22012Y   26161.52476860  .00000023  00000+0  26870-4 0  9992
2 51644  87.9135   7.2057 0001973  78.1632 281.9721 13.17648203212799
ONEWEB-0456             
1 51646U 22012AA  26161.39477877 -.00000031  00000+0 -12409-3 0  9991
2 51646  87.8854  37.6058 0001677  78.9934 281.1381 13.10374547208452
ONEWEB-0457             
1 51647U 22012AB  26161.37139963 -.00000625  00000+0 -18282-2 0  9994
2 51647  87.8836  37.6291 0002127  90.0072 270.1300 13.10370372208452
ONEWEB-0458             
1 51648U 22012AC  26161.39313389 -.00000042  00000+0 -15687-3 0  9993
2 51648  87.8849  37.6122 0001897  75.3476 284.7861 13.10375018208418
ONEWEB-0461             
1 51649U 22012AD  26161.16702130  .00000078  00000+0  16649-3 0  9991
2 51649  87.9146   7.2533 0001909  89.3037 270.8313 13.17647951212969
ONEWEB-0463             
1 51650U 22012AE  26161.52815164  .00000015  00000+0  53288-5 0  9998
2 51650  87.9134   7.2045 0001954  90.8775 269.2580 13.17648381212799
ONEWEB-0464             
1 51651U 22012AF  26161.38981087 -.00000224  00000+0 -67916-3 0  9996
2 51651  87.8839  37.6353 0001659  73.3378 286.7931 13.10375495208433
ONEWEB-0468             
1 51652U 22012AG  26161.39645803  .00000089  00000+0  21989-3 0  9998
2 51652  87.8841  37.6279 0001612  72.1979 287.9324 13.10375601208413
ONEWEB-0473             
1 51653U 22012AH  26161.38150392 -.00000595  00000+0 -17404-2 0  9992
2 51653  87.8837  37.6325 0001822  77.3266 282.8065 13.10373810208416
ONEWEB-0474             
1 51654U 22012AJ  26161.37320001 -.00000649  00000+0 -18948-2 0  9992
2 51654  87.8844  37.6174 0001720  71.9298 288.2017 13.10371573208409
ONEWEB-0475             
1 51655U 22012AK  26161.08434442  .00000071  00000+0  14929-3 0  9999
2 51655  87.9137   7.2858 0001715  65.8547 294.2764 13.17647874212757
ONEWEB-0490             
1 54113U 22138A   26161.31106937 -.00000008  00000+0 -51655-4 0  9991
2 54113  87.9172 306.3366 0001663  98.5890 261.5432 13.19724687175927
ONEWEB-0492             
1 54114U 22138B   26161.33635262  .00000112  00000+0  24844-3 0  9995
2 54114  87.9164 306.3334 0001716 105.2342 254.8980 13.19725560175936
ONEWEB-0495             
1 54115U 22138C   26161.31422809  .00000023  00000+0  23969-4 0  9994
2 54115  87.9164 306.3404 0001157  98.2109 261.9155 13.19724486175913
ONEWEB-0497             
1 54116U 22138D   26161.32686455  .00000062  00000+0  12284-3 0  9995
2 54116  87.9168 306.3295 0001747  98.7427 261.3904 13.19724442175906
ONEWEB-0499             
1 54117U 22138E   26161.31028837  .00000011  00000+0 -58929-5 0  9992
2 54117  87.9163 306.3426 0001608  93.5207 266.6110 13.19726277175919
