OBJECT_NAME,OBJECT_ID,EPOCH,MEAN_MOTION,ECCENTRICITY,INCLINATION,RA_OF_ASC_NODE,ARG_OF_PERICENTER,MEAN_ANOMALY,EPHEMERIS_TYPE,CLASSIFICATION_TYPE,NORAD_CAT_ID,ELEMENT_SET_NO,REV_AT_EPOCH,BSTAR,MEAN_MOTION_DOT,MEAN_MOTION_DDOT
ONEWEB-0428,2022-012H,2026-06-10T08:50:14.379072,13.10370805,.000178,87.8836,37.6325,80.3582,279.7746,0,U,51629,999,20839,-.16171E-2,-.552E-5,0
ONEWEB-0431,2022-012J,2026-06-10T09:57:00.195840,13.10373157,.0001431,87.8840,37.6156,98.7589,261.3701,0,U,51630,999,20845,.18443E-2,.656E-5,0
ONEWEB-0434,2022-012K,2026-06-10T09:23:55.236192,13.10375409,.0002396,87.8846,37.6451,74.4070,285.7321,0,U,51631,999,20843,-.59812E-3,-.196E-5,0
ONEWEB-0435,2022-012L,2026-06-10T09:35:39.469632,13.10373833,.0001471,87.8841,37.6302,79.0608,281.0685,0,U,51632,999,20842,.70006E-3,.257E-5,0
ONEWEB-0436,2022-012M,2026-06-10T12:42:57.329280,13.17648313,.0001639,87.9144,7.1697,86.6464,273.4855,0,U,51633,999,21280,.55828E-5,.15E-6,0
ONEWEB-0438,2022-012N,2026-06-10T03:41:53.738880,13.10374612,.0002,87.8841,37.6820,80.2920,279.8433,0,U,51634,999,20842,-.14874E-2,-.507E-5,0
ONEWEB-0439,2022-012P,2026-06-10T09:16:34.224672,13.10367837,.0002667,87.8828,37.6231,79.5199,280.6229,0,U,51635,999,20843,-.24472E-2,-.841E-5,0
ONEWEB-0442,2022-012Q,2026-06-10T12:32:01.815936,13.17648811,.0002428,87.9138,7.2045,85.2023,274.9385,0,U,51636,999,21279,.79591E-6,.13E-6,0
ONEWEB-0443,2022-012R,2026-06-10T00:14:31.680960,13.17648806,.00018887,87.9135,7.3074,76.5534,283.5808,0,U,51637,999,21277,.24317365E-3,.107E-5,0
ONEWEB-0444,2022-012S,2026-06-10T09:02:11.706432,13.10372701,.000188,87.8834,37.6236,76.3866,283.7471,0,U,51638,999,20844,-.19492E-2,-.668E-5,0
ONEWEB-0445,2022-012T,2026-06-10T09:33:17.665632,13.10375391,.0001816,87.8850,37.6071,88.5870,271.5465,0,U,51639,999,20845,.43207E-3,.163E-5,0
ONEWEB-0446,2022-012U,2026-06-10T08:59:47.876352,13.10372240,.0001839,87.8839,37.6410,86.2347,273.8991,0,U,51640,999,20843,-.19147E-2,-.656E-5,0
ONEWEB-0448,2022-012V,2026-06-10T09:06:58.944096,13.10374115,.0001788,87.8841,37.6369,79.1089,281.0239,0,U,51641,999,20840,-.17987E-2,-.615E-5,0
ONEWEB-0449,2022-012W,2026-06-10T09:14:09.158208,13.10374418,.0002215,87.8842,37.6210,76.3940,283.7434,0,U,51642,999,20841,-.1345E-2,-.457E-5,0
ONEWEB-0451,2022-012X,2026-06-10T12:38:06.836064,13.17648585,.0002058,87.9147,7.1678,83.1803,276.9563,0,U,51643,999,21278,-.32828E-4,0,0
ONEWEB-0452,2022-012Y,2026-06-10T12:35:40.007040,13.17648203,.0001973,87.9135,7.2057,78.1632,281.9721,0,U,51644,999,21279,.2687E-4,.23E-6,0
ONEWEB-0456,2022-012AA,2026-06-10T09:28:28.885728,13.10374547,.0001677,87.8854,37.6058,78.9934,281.1381,0,U,51646,999,20845,-.12409E-3,-.31E-6,0
ONEWEB-0457,2022-012AB,2026-06-10T08:54:48.928032,13.10370372,.0002127,87.8836,37.6291,90.0072,270.1300,0,U,51647,999,20845,-.18282E-2,-.625E-5,0
ONEWEB-0458,2022-012AC,2026-06-10T09:26:06.768096,13.10375018,.0001897,87.8849,37.6122,75.3476,284.7861,0,U,51648,999,20841,-.15687E-3,-.42E-6,0
ONEWEB-0461,2022-012AD,2026-06-10T04:00:30.640320,13.17647951,.0001909,87.9146,7.2533,89.3037,270.8313,0,U,51649,999,21296,.16649E-3,.78E-6,0
ONEWEB-0463,2022-012AE,2026-06-10T12:40:32.301696,13.17648381,.0001954,87.9134,7.2045,90.8775,269.2580,0,U,51650,999,21279,.53288E-5,.15E-6,0
ONEWEB-0464,2022-012AF,2026-06-10T09:21:19.659168,13.10375495,.0001659,87.8839,37.6353,73.3378,286.7931,0,U,51651,999,20843,-.67916E-3,-.224E-5,0
ONEWEB-0468,2022-012AG,2026-06-10T09:30:53.973792,13.10375601,.0001612,87.8841,37.6279,72.1979,287.9324,0,U,51652,999,20841,.21989E-3,.89E-6,0
ONEWEB-0473,2022-012AH,2026-06-10T09:09:21.938688,13.10373810,.0001822,87.8837,37.6325,77.3266,282.8065,0,U,51653,999,20841,-.17404E-2,-.595E-5,0
ONEWEB-0474,2022-012AJ,2026-06-10T08:57:24.480864,13.10371573,.000172,87.8844,37.6174,71.9298,288.2017,0,U,51654,999,20840,-.18948E-2,-.649E-5,0
ONEWEB-0475,2022-012AK,2026-06-10T02:01:27.357888,13.17647874,.0001715,87.9137,7.2858,65.8547,294.2764,0,U,51655,999,21275,.14929E-3,.71E-6,0
ONEWEB-0490,2022-138A,2026-06-10T07:27:56.393568,13.19724687,.0001663,87.9172,306.3366,98.5890,261.5432,0,U,54113,999,17592,-.51655E-4,-.8E-7,0
ONEWEB-0492,2022-138B,2026-06-10T08:04:20.866368,13.19725560,.0001716,87.9164,306.3334,105.2342,254.8980,0,U,54114,999,17593,.24844E-3,.112E-5,0
ONEWEB-0495,2022-138C,2026-06-10T07:32:29.306976,13.19724486,.0001157,87.9164,306.3404,98.2109,261.9155,0,U,54115,999,17591,.23969E-4,.23E-6,0
ONEWEB-0497,2022-138D,2026-06-10T07:50:41.097120,13.19724442,.0001747,87.9168,306.3295,98.7427,261.3904,0,U,54116,999,17590,.12284E-3,.62E-6,0
ONEWEB-0499,2022-138E,2026-06-10T07:26:48.915168,13.19726277,.0001608,87.9163,306.3426,93.5207,266.6110,0,U,54117,999,17591,-.58929E-5,.11E-6,0
